{
  "links" : {
    "next" : "https://api.nasa.gov/neo/rest/v1/feed?start_date=2003-10-09&end_date=2003-10-09&detailed=true&api_key=t0TVs3DtDT2H8Oy2Zy8m2eVrNsAVKAexjcZXUckd",
    "prev" : "https://api.nasa.gov/neo/rest/v1/feed?start_date=2003-10-07&end_date=2003-10-07&detailed=true&api_key=t0TVs3DtDT2H8Oy2Zy8m2eVrNsAVKAexjcZXUckd",
    "self" : "https://api.nasa.gov/neo/rest/v1/feed?start_date=2003-10-08&end_date=2003-10-08&detailed=true&api_key=t0TVs3DtDT2H8Oy2Zy8m2eVrNsAVKAexjcZXUckd"
  },
  "element_count" : 10,
  "near_earth_objects" : {
    "2003-10-08" : [ {
      "links" : {
        "self" : "https://api.nasa.gov/neo/rest/v1/neo/2467347?api_key=t0TVs3DtDT2H8Oy2Zy8m2eVrNsAVKAexjcZXUckd"
      },
      "neo_reference_id" : "2467347",
      "name" : "467347 (2003 GR)",
      "nasa_jpl_url" : "http://ssd.jpl.nasa.gov/sbdb.cgi?sstr=2467347",
      "absolute_magnitude_h" : 20.6,
      "estimated_diameter" : {
        "kilometers" : {
          "estimated_diameter_min" : 0.2016299194,
          "estimated_diameter_max" : 0.4508582062
        },
        "meters" : {
          "estimated_diameter_min" : 201.6299194428,
          "estimated_diameter_max" : 450.8582061718
        },
        "miles" : {
          "estimated_diameter_min" : 0.1252869847,
          "estimated_diameter_max" : 0.2801502144
        },
        "feet" : {
          "estimated_diameter_min" : 661.5155049046,
          "estimated_diameter_max" : 1479.1936371367
        }
      },
      "is_potentially_hazardous_asteroid" : false,
      "close_approach_data" : [ {
        "close_approach_date" : "2003-10-08",
        "epoch_date_close_approach" : 1065596400000,
        "relative_velocity" : {
          "kilometers_per_second" : "26.9529240493",
          "kilometers_per_hour" : "97030.5265774156",
          "miles_per_hour" : "60290.9958058391"
        },
        "miss_distance" : {
          "astronomical" : "0.3022610442",
          "lunar" : "117.5795516968",
          "kilometers" : "45217612",
          "miles" : "28096920"
        },
        "orbiting_body" : "Earth"
      } ],
      "orbital_data" : {
        "orbit_id" : "32",
        "orbit_determination_date" : "2017-04-06 09:19:26",
        "orbit_uncertainty" : "0",
        "minimum_orbit_intersection" : ".209354",
        "jupiter_tisserand_invariant" : "4.307",
        "epoch_osculation" : "2458000.5",
        "eccentricity" : ".3177444461929936",
        "semi_major_axis" : "1.384710656640559",
        "inclination" : "55.83310949087334",
        "ascending_node_longitude" : "21.13880702737665",
        "orbital_period" : "595.1644449946381",
        "perihelion_distance" : ".9447265359087681",
        "perihelion_argument" : "273.0471416072223",
        "aphelion_distance" : "1.82469477737235",
        "perihelion_time" : "2458187.047025217805",
        "mean_anomaly" : "247.1623974798852",
        "mean_motion" : ".604874842621426",
        "equinox" : "J2000"
      }
    } ]
  }
}